{"type": "FeatureCollection", "features": [ {"type": "Feature", "properties": {"norad_id": 38552, "name": "METEOSAT-10 (MSG-3)", "group": "weather", "lat": -4.084061509101221, "lon": -45.50165198591325, "alt_km": 35782.23700151298, "timestamp": "2025-12-24T14:43:28.638266+00:00", "meta": {"OBJECT_NAME": "METEOSAT-10 (MSG-3)", "OBJECT_ID": "2012-035B", "EPOCH": "2025-12-23T23:24:15.412032", "MEAN_MOTION": 1.00266372, "ECCENTRICITY": 0.0001439, "INCLINATION": 4.2534, "RA_OF_ASC_NODE": 61.6917, "ARG_OF_PERICENTER": 267.4688, "MEAN_ANOMALY": 114.9679, "EPHEMERIS_TYPE": 0, "CLASSIFICATION_TYPE": "U", "NORAD_CAT_ID": 38552, "ELEMENT_SET_NO": 999, "REV_AT_EPOCH": 4910, "BSTAR": 0, "MEAN_MOTION_DOT": 1.4e-07, "MEAN_MOTION_DDOT": 0}, "tle": {"line1": "1 38552U 12035B   25357.97517838  .00000014  00000+0  00000+0 0  9997", "line2": "2 38552   4.2534  61.6917 0001439 267.4688 114.9679  1.00266372 49109"}}, "geometry": {"type": "Point", "coordinates": [-45.50165198591325, -4.084061509101221]}}, {"type": "Feature", "properties": {"norad_id": 38771, "name": "METOP-B", "group": "weather", "lat": -27.202645341777558, "lon": 52.872578969168124, "alt_km": 828.2343978417412, "timestamp": "2025-12-24T14:43:28.638277+00:00", "meta": {"OBJECT_NAME": "METOP-B", "OBJECT_ID": "2012-049A", "EPOCH": "2025-12-24T06:24:24.848928", "MEAN_MOTION": 14.21412635, "ECCENTRICITY": 0.00032581, "INCLINATION": 98.6783, "RA_OF_ASC_NODE": 48.0295, "ARG_OF_PERICENTER": 120.0473, "MEAN_ANOMALY": 240.1027, "EPHEMERIS_TYPE": 0, "CLASSIFICATION_TYPE": "U", "NORAD_CAT_ID": 38771, "ELEMENT_SET_NO": 999, "REV_AT_EPOCH": 68841, "BSTAR": 7.8176822e-05, "MEAN_MOTION_DOT": 1.27e-06, "MEAN_MOTION_DDOT": 0}, "tle": {"line1": "1 38771U 12049A   25358.26695427  .00000127  00000+0  78177-4 0  9999", "line2": "2 38771  98.6783  48.0295 0003258 120.0473 240.1027 14.21412635688414"}}, "geometry": {"type": "Point", "coordinates": [52.872578969168124, -27.202645341777558]}}, {"type": "Feature", "properties": {"norad_id": 39216, "name": "INSAT-3D", "group": "weather", "lat": -0.007529471125400093, "lon": 83.77696343891269, "alt_km": 35792.487388080175, "timestamp": "2025-12-24T14:43:28.638289+00:00", "meta": {"OBJECT_NAME": "INSAT-3D", "OBJECT_ID": "2013-038B", "EPOCH": "2025-12-23T20:35:46.548096", "MEAN_MOTION": 1.00275086, "ECCENTRICITY": 0.0001868, "INCLINATION": 1.4718, "RA_OF_ASC_NODE": 84.8718, "ARG_OF_PERICENTER": 154.9111, "MEAN_ANOMALY": 291.3295, "EPHEMERIS_TYPE": 0, "CLASSIFICATION_TYPE": "U", "NORAD_CAT_ID": 39216, "ELEMENT_SET_NO": 999, "REV_AT_EPOCH": 4532, "BSTAR": 0, "MEAN_MOTION_DOT": -3.18e-06, "MEAN_MOTION_DDOT": 0}, "tle": {"line1": "1 39216U 13038B   25357.85817764 -.00000318  00000+0  00000+0 0  9995", "line2": "2 39216   1.4718  84.8718 0001868 154.9111 291.3295  1.00275086 45329"}}, "geometry": {"type": "Point", "coordinates": [83.77696343891269, -0.007529471125400093]}}, {"type": "Feature", "properties": {"norad_id": 39260, "name": "FENGYUN 3C", "group": "weather", "lat": -24.277213713260966, "lon": -20.428813868853158, "alt_km": 856.1186120557586, "timestamp": "2025-12-24T14:43:28.638300+00:00", "meta": {"OBJECT_NAME": "FENGYUN 3C", "OBJECT_ID": "2013-052A", "EPOCH": "2025-12-24T06:21:34.379136", "MEAN_MOTION": 14.15699654, "ECCENTRICITY": 0.00149203, "INCLINATION": 98.4778, "RA_OF_ASC_NODE": 335.3823, "ARG_OF_PERICENTER": 162.7489, "MEAN_ANOMALY": 197.4196, "EPHEMERIS_TYPE": 0, "CLASSIFICATION_TYPE": "U", "NORAD_CAT_ID": 39260, "ELEMENT_SET_NO": 999, "REV_AT_EPOCH": 63381, "BSTAR": 7.815553e-05, "MEAN_MOTION_DOT": 1.12e-06, "MEAN_MOTION_DDOT": 0}, "tle": {"line1": "1 39260U 13052A   25358.26498124  .00000112  00000+0  78156-4 0  9994", "line2": "2 39260  98.4778 335.3823 0014920 162.7489 197.4196 14.15699654633813"}}, "geometry": {"type": "Point", "coordinates": [-20.428813868853158, -24.277213713260966]}}, {"type": "Feature", "properties": {"norad_id": 40069, "name": "METEOR-M 2", "group": "weather", "lat": -19.73055879836484, "lon": 152.67192762722163, "alt_km": 822.1762787213211, "timestamp": "2025-12-24T14:43:28.638311+00:00", "meta": {"OBJECT_NAME": "METEOR-M 2", "OBJECT_ID": "2014-037A", "EPOCH": "2025-12-24T07:01:46.968672", "MEAN_MOTION": 14.21391164, "ECCENTRICITY": 0.0005584, "INCLINATION": 98.4915, "RA_OF_ASC_NODE": 335.435, "ARG_OF_PERICENTER": 173.5595, "MEAN_ANOMALY": 186.5656, "EPHEMERIS_TYPE": 0, "CLASSIFICATION_TYPE": "U", "NORAD_CAT_ID": 40069, "ELEMENT_SET_NO": 999, "REV_AT_EPOCH": 59447, "BSTAR": 0.00018519553, "MEAN_MOTION_DOT": 3.63e-06, "MEAN_MOTION_DDOT": 0}, "tle": {"line1": "1 40069U 14037A   25358.29290473  .00000363  00000+0  18520-3 0  9993", "line2": "2 40069  98.4915 335.4350 0005584 173.5595 186.5656 14.21391164594475"}}, "geometry": {"type": "Point", "coordinates": [152.67192762722163, -19.73055879836484]}}, {"type": "Feature", "properties": {"norad_id": 40267, "name": "HIMAWARI-8", "group": "weather", "lat": 0.0044962827991345, "lon": 94.92218294677959, "alt_km": 35789.34058543583, "timestamp": "2025-12-24T14:43:28.638323+00:00", "meta": {"OBJECT_NAME": "HIMAWARI-8", "OBJECT_ID": "2014-060A", "EPOCH": "2025-12-24T00:45:21.695040", "MEAN_MOTION": 1.00271789, "ECCENTRICITY": 8.702e-05, "INCLINATION": 0.0445, "RA_OF_ASC_NODE": 206.7562, "ARG_OF_PERICENTER": 97.9874, "MEAN_ANOMALY": 300.0776, "EPHEMERIS_TYPE": 0, "CLASSIFICATION_TYPE": "U", "NORAD_CAT_ID": 40267, "ELEMENT_SET_NO": 999, "REV_AT_EPOCH": 4100, "BSTAR": 0, "MEAN_MOTION_DOT": -2.54e-06, "MEAN_MOTION_DDOT": 0}, "tle": {"line1": "1 40267U 14060A   25358.03150110 -.00000254  00000+0  00000+0 0  9994", "line2": "2 40267   0.0445 206.7562 0000870  97.9874 300.0776  1.00271789 41004"}}, "geometry": {"type": "Point", "coordinates": [94.92218294677959, 0.0044962827991345]}}, {"type": "Feature", "properties": {"norad_id": 40367, "name": "FENGYUN 2G", "group": "weather", "lat": -1.890084426755917, "lon": 53.55054862760359, "alt_km": 35790.65207881654, "timestamp": "2025-12-24T14:43:28.638335+00:00", "meta": {"OBJECT_NAME": "FENGYUN 2G", "OBJECT_ID": "2014-090A", "EPOCH": "2025-12-23T18:44:19.570848", "MEAN_MOTION": 1.00283037, "ECCENTRICITY": 0.00017935, "INCLINATION": 5.1935, "RA_OF_ASC_NODE": 74.9603, "ARG_OF_PERICENTER": 171.7462, "MEAN_ANOMALY": 226.1214, "EPHEMERIS_TYPE": 0, "CLASSIFICATION_TYPE": "U", "NORAD_CAT_ID": 40367, "ELEMENT_SET_NO": 999, "REV_AT_EPOCH": 4024, "BSTAR": 0, "MEAN_MOTION_DOT": -2.82e-06, "MEAN_MOTION_DDOT": 0}, "tle": {"line1": "1 40367U 14090A   25357.78078207 -.00000282  00000+0  00000+0 0  9996", "line2": "2 40367   5.1935  74.9603 0001793 171.7462 226.1214  1.00283037 40244"}}, "geometry": {"type": "Point", "coordinates": [53.55054862760359, -1.890084426755917]}}, {"type": "Feature", "properties": {"norad_id": 40732, "name": "METEOSAT-11 (MSG-4)", "group": "weather", "lat": -2.639965629414505, "lon": -36.57696607210765, "alt_km": 35787.86111000934, "timestamp": "2025-12-24T14:43:28.638347+00:00", "meta": {"OBJECT_NAME": "METEOSAT-11 (MSG-4)", "OBJECT_ID": "2015-034A", "EPOCH": "2025-12-24T00:28:38.654112", "MEAN_MOTION": 1.00271024, "ECCENTRICITY": 7.378e-05, "INCLINATION": 2.7646, "RA_OF_ASC_NODE": 71.9713, "ARG_OF_PERICENTER": 137.1172, "MEAN_ANOMALY": 260.0587, "EPHEMERIS_TYPE": 0, "CLASSIFICATION_TYPE": "U", "NORAD_CAT_ID": 40732, "ELEMENT_SET_NO": 999, "REV_AT_EPOCH": 546, "BSTAR": 0, "MEAN_MOTION_DOT": 8.1e-07, "MEAN_MOTION_DDOT": 0}, "tle": {"line1": "1 40732U 15034A   25358.01989183  .00000081  00000+0  00000+0 0  9998", "line2": "2 40732   2.7646  71.9713 0000737 137.1172 260.0587  1.00271024  5460"}}, "geometry": {"type": "Point", "coordinates": [-36.57696607210765, -2.639965629414505]}}, {"type": "Feature", "properties": {"norad_id": 41105, "name": "ELEKTRO-L 2", "group": "weather", "lat": -4.598314331420824, "lon": -60.37252980590622, "alt_km": 35772.40030698139, "timestamp": "2025-12-24T14:43:28.638360+00:00", "meta": {"OBJECT_NAME": "ELEKTRO-L 2", "OBJECT_ID": "2015-074A", "EPOCH": "2025-12-23T23:20:08.306304", "MEAN_MOTION": 1.0027219, "ECCENTRICITY": 0.00035263, "INCLINATION": 6.2522, "RA_OF_ASC_NODE": 72.6944, "ARG_OF_PERICENTER": 208.9668, "MEAN_ANOMALY": 146.6578, "EPHEMERIS_TYPE": 0, "CLASSIFICATION_TYPE": "U", "NORAD_CAT_ID": 41105, "ELEMENT_SET_NO": 999, "REV_AT_EPOCH": 3674, "BSTAR": 0, "MEAN_MOTION_DOT": -9.8e-07, "MEAN_MOTION_DDOT": 0}, "tle": {"line1": "1 41105U 15074A   25357.97231836 -.00000098  00000+0  00000+0 0  9995", "line2": "2 41105   6.2522  72.6944 0003526 208.9668 146.6578  1.00272190 36746"}}, "geometry": {"type": "Point", "coordinates": [-60.37252980590622, -4.598314331420824]}}, {"type": "Feature", "properties": {"norad_id": 41752, "name": "INSAT-3DR", "group": "weather", "lat": -0.09445212460555803, "lon": 28.38493267907618, "alt_km": 35813.04032358955, "timestamp": "2025-12-24T14:43:28.638372+00:00", "meta": {"OBJECT_NAME": "INSAT-3DR", "OBJECT_ID": "2016-054A", "EPOCH": "2025-12-24T02:10:38.805888", "MEAN_MOTION": 1.00271423, "ECCENTRICITY": 0.00142507, "INCLINATION": 0.1186, "RA_OF_ASC_NODE": 86.2454, "ARG_OF_PERICENTER": 185.6125, "MEAN_ANOMALY": 287.6641, "EPHEMERIS_TYPE": 0, "CLASSIFICATION_TYPE": "U", "NORAD_CAT_ID": 41752, "ELEMENT_SET_NO": 999, "REV_AT_EPOCH": 3406, "BSTAR": 0, "MEAN_MOTION_DOT": -5.6e-07, "MEAN_MOTION_DDOT": 0}, "tle": {"line1": "1 41752U 16054A   25358.09072692 -.00000056  00000+0  00000+0 0  9993", "line2": "2 41752   0.1186  86.2454 0014250 185.6125 287.6641  1.00271423 34063"}}, "geometry": {"type": "Point", "coordinates": [28.38493267907618, -0.09445212460555803]}}]}